{
"type": "FeatureCollection",
"name": "Line Batas",
"features": [
{ "type": "Feature", "properties": { "Name": -1, "FID": 0, "Field_1": -1, "LEFT_FID": -1, "RIGHT_FID": 5 }, "geometry": { "type": "LineString", "coordinates": [ [ 124.842277, 1.3231044, 0.0 ], [ 124.8424166, 1.3230929, 0.0 ], [ 124.8425926, 1.32309, 0.0 ] ] } },
{ "type": "Feature", "properties": { "Name": -1, "FID": 1, "Field_1": -1, "LEFT_FID": -1, "RIGHT_FID": 3 }, "geometry": { "type": "LineString", "coordinates": [ [ 124.8414901, 1.3231528, 0.0 ], [ 124.8417541, 1.3231366, 0.0 ], [ 124.842151, 1.3231148, 0.0 ], [ 124.8422175, 1.3231093, 0.0 ], [ 124.842277, 1.3231044, 0.0 ] ] } },
{ "type": "Feature", "properties": { "Name": -1, "FID": 2, "Field_1": -1, "LEFT_FID": -1, "RIGHT_FID": 2 }, "geometry": { "type": "LineString", "coordinates": [ [ 124.8403545, 1.3232312, 0.0 ], [ 124.8412877, 1.3231652, 0.0 ], [ 124.8414901, 1.3231528, 0.0 ] ] } },
{ "type": "Feature", "properties": { "Name": -1, "FID": 3, "Field_1": -1, "LEFT_FID": -1, "RIGHT_FID": 6 }, "geometry": { "type": "LineString", "coordinates": [ [ 124.8400236, 1.3232547, 0.0 ], [ 124.8403545, 1.3232312, 0.0 ] ] } },
{ "type": "Feature", "properties": { "Name": 6, "FID": 4, "Field_1": 6, "LEFT_FID": 6, "RIGHT_FID": 1 }, "geometry": { "type": "LineString", "coordinates": [ [ 124.8400236, 1.3232547, 0.0 ], [ 124.8400353, 1.3233423, 0.0 ], [ 124.839842, 1.3233582, 0.0 ], [ 124.8398463, 1.3236423, 0.0 ], [ 124.8398034, 1.3236423, 0.0 ] ] } },
{ "type": "Feature", "properties": { "Name": 5, "FID": 5, "Field_1": 5, "LEFT_FID": 5, "RIGHT_FID": 4 }, "geometry": { "type": "LineString", "coordinates": [ [ 124.845844, 1.3236952, 0.0 ], [ 124.8457502, 1.3236741, 0.0 ], [ 124.8454689, 1.323611, 0.0 ], [ 124.845399, 1.3235953, 0.0 ], [ 124.8453014, 1.3235981, 0.0 ], [ 124.8451628, 1.3236318, 0.0 ] ] } },
{ "type": "Feature", "properties": { "Name": 5, "FID": 6, "Field_1": 5, "LEFT_FID": 5, "RIGHT_FID": 4 }, "geometry": { "type": "LineString", "coordinates": [ [ 124.8460417, 1.3237282, 0.0 ], [ 124.8458648, 1.3236998, 0.0 ], [ 124.845844, 1.3236952, 0.0 ] ] } },
{ "type": "Feature", "properties": { "Name": 5, "FID": 7, "Field_1": 5, "LEFT_FID": 5, "RIGHT_FID": 5 }, "geometry": { "type": "LineString", "coordinates": [ [ 124.8460417, 1.3237282, 0.0 ], [ 124.8458648, 1.3236998, 0.0 ], [ 124.845844, 1.3236952, 0.0 ] ] } },
{ "type": "Feature", "properties": { "Name": 4, "FID": 8, "Field_1": 4, "LEFT_FID": 4, "RIGHT_FID": 4 }, "geometry": { "type": "LineString", "coordinates": [ [ 124.845844, 1.3236952, 0.0 ], [ 124.8460417, 1.3237282, 0.0 ] ] } },
{ "type": "Feature", "properties": { "Name": 4, "FID": 9, "Field_1": 4, "LEFT_FID": 4, "RIGHT_FID": 5 }, "geometry": { "type": "LineString", "coordinates": [ [ 124.845844, 1.3236952, 0.0 ], [ 124.8460417, 1.3237282, 0.0 ] ] } },
{ "type": "Feature", "properties": { "Name": -1, "FID": 10, "Field_1": -1, "LEFT_FID": -1, "RIGHT_FID": 5 }, "geometry": { "type": "LineString", "coordinates": [ [ 124.8460417, 1.3237282, 0.0 ], [ 124.8463861, 1.3237854, 0.0 ] ] } },
{ "type": "Feature", "properties": { "Name": -1, "FID": 11, "Field_1": -1, "LEFT_FID": -1, "RIGHT_FID": 4 }, "geometry": { "type": "LineString", "coordinates": [ [ 124.8463861, 1.3237854, 0.0 ], [ 124.8462594, 1.3237632, 0.0 ], [ 124.8460417, 1.3237282, 0.0 ] ] } },
{ "type": "Feature", "properties": { "Name": 5, "FID": 12, "Field_1": 5, "LEFT_FID": 5, "RIGHT_FID": 4 }, "geometry": { "type": "LineString", "coordinates": [ [ 124.8464416, 1.3238297, 0.0 ], [ 124.8463861, 1.3237854, 0.0 ] ] } },
{ "type": "Feature", "properties": { "Name": 5, "FID": 13, "Field_1": 5, "LEFT_FID": 5, "RIGHT_FID": 4 }, "geometry": { "type": "LineString", "coordinates": [ [ 124.8464638, 1.32392, 0.0 ], [ 124.8464527, 1.3238757, 0.0 ], [ 124.8464416, 1.3238297, 0.0 ] ] } },
{ "type": "Feature", "properties": { "Name": 5, "FID": 14, "Field_1": 5, "LEFT_FID": 5, "RIGHT_FID": 5 }, "geometry": { "type": "LineString", "coordinates": [ [ 124.8464638, 1.32392, 0.0 ], [ 124.8464527, 1.3238757, 0.0 ], [ 124.8464416, 1.3238297, 0.0 ] ] } },
{ "type": "Feature", "properties": { "Name": 4, "FID": 15, "Field_1": 4, "LEFT_FID": 4, "RIGHT_FID": 4 }, "geometry": { "type": "LineString", "coordinates": [ [ 124.8464416, 1.3238297, 0.0 ], [ 124.8464638, 1.32392, 0.0 ] ] } },
{ "type": "Feature", "properties": { "Name": 4, "FID": 16, "Field_1": 4, "LEFT_FID": 4, "RIGHT_FID": 5 }, "geometry": { "type": "LineString", "coordinates": [ [ 124.8464416, 1.3238297, 0.0 ], [ 124.8464638, 1.32392, 0.0 ] ] } },
{ "type": "Feature", "properties": { "Name": 5, "FID": 17, "Field_1": 5, "LEFT_FID": 5, "RIGHT_FID": 4 }, "geometry": { "type": "LineString", "coordinates": [ [ 124.8451628, 1.3236318, 0.0 ], [ 124.8450221, 1.3236239, 0.0 ], [ 124.8450063, 1.3236912, 0.0 ], [ 124.8450618, 1.3237546, 0.0 ], [ 124.8450103, 1.3238456, 0.0 ], [ 124.8447785, 1.3240753, 0.0 ], [ 124.8447151, 1.3241664, 0.0 ], [ 124.8446973, 1.3242436, 0.0 ], [ 124.8445785, 1.324511, 0.0 ], [ 124.8442061, 1.3243031, 0.0 ], [ 124.8434435, 1.3239942, 0.0 ], [ 124.8431346, 1.3239565, 0.0 ], [ 124.8429573, 1.3239545, 0.0 ], [ 124.8424154, 1.3238928, 0.0 ], [ 124.8425926, 1.32309, 0.0 ] ] } },
{ "type": "Feature", "properties": { "Name": 3, "FID": 18, "Field_1": 3, "LEFT_FID": 3, "RIGHT_FID": 2 }, "geometry": { "type": "LineString", "coordinates": [ [ 124.8414901, 1.3231528, 0.0 ], [ 124.8414958, 1.3234683, 0.0 ], [ 124.8409174, 1.3235095, 0.0 ], [ 124.8409581, 1.3243433, 0.0 ], [ 124.8409615, 1.3244129, 0.0 ], [ 124.8410085, 1.3253753, 0.0 ], [ 124.8410093, 1.3254419, 0.0 ] ] } },
{ "type": "Feature", "properties": { "Name": 3, "FID": 19, "Field_1": 3, "LEFT_FID": 3, "RIGHT_FID": 0 }, "geometry": { "type": "LineString", "coordinates": [ [ 124.8410093, 1.3254419, 0.0 ], [ 124.8411502, 1.3254313, 0.0 ] ] } },
{ "type": "Feature", "properties": { "Name": 0, "FID": 20, "Field_1": 0, "LEFT_FID": 0, "RIGHT_FID": 0 }, "geometry": { "type": "LineString", "coordinates": [ [ 124.8412235, 1.3254596, 0.0 ], [ 124.8411502, 1.3254313, 0.0 ] ] } },
{ "type": "Feature", "properties": { "Name": 0, "FID": 21, "Field_1": 0, "LEFT_FID": 0, "RIGHT_FID": 3 }, "geometry": { "type": "LineString", "coordinates": [ [ 124.8412235, 1.3254596, 0.0 ], [ 124.8411502, 1.3254313, 0.0 ] ] } },
{ "type": "Feature", "properties": { "Name": 3, "FID": 22, "Field_1": 3, "LEFT_FID": 3, "RIGHT_FID": 0 }, "geometry": { "type": "LineString", "coordinates": [ [ 124.8411502, 1.3254313, 0.0 ], [ 124.8412221, 1.3254589, 0.0 ], [ 124.8412235, 1.3254596, 0.0 ] ] } },
{ "type": "Feature", "properties": { "Name": 3, "FID": 23, "Field_1": 3, "LEFT_FID": 3, "RIGHT_FID": 3 }, "geometry": { "type": "LineString", "coordinates": [ [ 124.8411502, 1.3254313, 0.0 ], [ 124.8412221, 1.3254589, 0.0 ], [ 124.8412235, 1.3254596, 0.0 ] ] } },
{ "type": "Feature", "properties": { "Name": -1, "FID": 24, "Field_1": -1, "LEFT_FID": -1, "RIGHT_FID": 0 }, "geometry": { "type": "LineString", "coordinates": [ [ 124.8412235, 1.3254596, 0.0 ], [ 124.8412409, 1.325468, 0.0 ] ] } },
{ "type": "Feature", "properties": { "Name": -1, "FID": 25, "Field_1": -1, "LEFT_FID": -1, "RIGHT_FID": 3 }, "geometry": { "type": "LineString", "coordinates": [ [ 124.8412409, 1.325468, 0.0 ], [ 124.8412244, 1.32546, 0.0 ], [ 124.8412235, 1.3254596, 0.0 ] ] } },
{ "type": "Feature", "properties": { "Name": 6, "FID": 26, "Field_1": 6, "LEFT_FID": 6, "RIGHT_FID": 2 }, "geometry": { "type": "LineString", "coordinates": [ [ 124.8403908, 1.3254879, 0.0 ], [ 124.840389, 1.3254231, 0.0 ], [ 124.8403736, 1.3248652, 0.0 ], [ 124.8404402, 1.3248652, 0.0 ], [ 124.8404378, 1.3246513, 0.0 ], [ 124.84054, 1.3246513, 0.0 ], [ 124.8405353, 1.3244874, 0.0 ], [ 124.8404378, 1.3244921, 0.0 ], [ 124.8404178, 1.3241896, 0.0 ], [ 124.8404125, 1.3241089, 0.0 ], [ 124.8404056, 1.3240044, 0.0 ], [ 124.8403545, 1.3232312, 0.0 ] ] } },
{ "type": "Feature", "properties": { "Name": -1, "FID": 27, "Field_1": -1, "LEFT_FID": -1, "RIGHT_FID": 2 }, "geometry": { "type": "LineString", "coordinates": [ [ 124.8410093, 1.3254419, 0.0 ], [ 124.8403908, 1.3254879, 0.0 ] ] } },
{ "type": "Feature", "properties": { "Name": -1, "FID": 28, "Field_1": -1, "LEFT_FID": -1, "RIGHT_FID": 0 }, "geometry": { "type": "LineString", "coordinates": [ [ 124.8403908, 1.3254879, 0.0 ], [ 124.8407057, 1.3254646, 0.0 ], [ 124.8410093, 1.3254419, 0.0 ] ] } },
{ "type": "Feature", "properties": { "Name": 0, "FID": 29, "Field_1": 0, "LEFT_FID": 0, "RIGHT_FID": 0 }, "geometry": { "type": "LineString", "coordinates": [ [ 124.8412941, 1.3254938, 0.0 ], [ 124.8412409, 1.325468, 0.0 ] ] } },
{ "type": "Feature", "properties": { "Name": 0, "FID": 30, "Field_1": 0, "LEFT_FID": 0, "RIGHT_FID": 3 }, "geometry": { "type": "LineString", "coordinates": [ [ 124.8412941, 1.3254938, 0.0 ], [ 124.8412409, 1.325468, 0.0 ] ] } },
{ "type": "Feature", "properties": { "Name": 3, "FID": 31, "Field_1": 3, "LEFT_FID": 3, "RIGHT_FID": 0 }, "geometry": { "type": "LineString", "coordinates": [ [ 124.8412409, 1.325468, 0.0 ], [ 124.8412915, 1.3254923, 0.0 ], [ 124.8412941, 1.3254938, 0.0 ] ] } },
{ "type": "Feature", "properties": { "Name": 3, "FID": 32, "Field_1": 3, "LEFT_FID": 3, "RIGHT_FID": 3 }, "geometry": { "type": "LineString", "coordinates": [ [ 124.8412409, 1.325468, 0.0 ], [ 124.8412915, 1.3254923, 0.0 ], [ 124.8412941, 1.3254938, 0.0 ] ] } },
{ "type": "Feature", "properties": { "Name": -1, "FID": 33, "Field_1": -1, "LEFT_FID": -1, "RIGHT_FID": 0 }, "geometry": { "type": "LineString", "coordinates": [ [ 124.8412941, 1.3254938, 0.0 ], [ 124.8413159, 1.3255066, 0.0 ] ] } },
{ "type": "Feature", "properties": { "Name": -1, "FID": 34, "Field_1": -1, "LEFT_FID": -1, "RIGHT_FID": 3 }, "geometry": { "type": "LineString", "coordinates": [ [ 124.8413159, 1.3255066, 0.0 ], [ 124.841296, 1.3254947, 0.0 ], [ 124.8412941, 1.3254938, 0.0 ] ] } },
{ "type": "Feature", "properties": { "Name": 6, "FID": 35, "Field_1": 6, "LEFT_FID": 6, "RIGHT_FID": 1 }, "geometry": { "type": "LineString", "coordinates": [ [ 124.8398034, 1.3236423, 0.0 ], [ 124.839807, 1.3239245, 0.0 ], [ 124.8397935, 1.3249822, 0.0 ], [ 124.8398244, 1.3249874, 0.0 ], [ 124.8398846, 1.3249858, 0.0 ], [ 124.8399537, 1.3255203, 0.0 ] ] } },
{ "type": "Feature", "properties": { "Name": 6, "FID": 36, "Field_1": 6, "LEFT_FID": 6, "RIGHT_FID": 0 }, "geometry": { "type": "LineString", "coordinates": [ [ 124.8399537, 1.3255203, 0.0 ], [ 124.8403908, 1.3254879, 0.0 ] ] } },
{ "type": "Feature", "properties": { "Name": 0, "FID": 37, "Field_1": 0, "LEFT_FID": 0, "RIGHT_FID": 0 }, "geometry": { "type": "LineString", "coordinates": [ [ 124.8413617, 1.3255337, 0.0 ], [ 124.8413159, 1.3255066, 0.0 ] ] } },
{ "type": "Feature", "properties": { "Name": 0, "FID": 38, "Field_1": 0, "LEFT_FID": 0, "RIGHT_FID": 3 }, "geometry": { "type": "LineString", "coordinates": [ [ 124.8413617, 1.3255337, 0.0 ], [ 124.8413159, 1.3255066, 0.0 ] ] } },
{ "type": "Feature", "properties": { "Name": 3, "FID": 39, "Field_1": 3, "LEFT_FID": 3, "RIGHT_FID": 0 }, "geometry": { "type": "LineString", "coordinates": [ [ 124.8413159, 1.3255066, 0.0 ], [ 124.841358, 1.3255312, 0.0 ], [ 124.8413617, 1.3255337, 0.0 ] ] } },
{ "type": "Feature", "properties": { "Name": 3, "FID": 40, "Field_1": 3, "LEFT_FID": 3, "RIGHT_FID": 3 }, "geometry": { "type": "LineString", "coordinates": [ [ 124.8413159, 1.3255066, 0.0 ], [ 124.841358, 1.3255312, 0.0 ], [ 124.8413617, 1.3255337, 0.0 ] ] } },
{ "type": "Feature", "properties": { "Name": -1, "FID": 41, "Field_1": -1, "LEFT_FID": -1, "RIGHT_FID": 0 }, "geometry": { "type": "LineString", "coordinates": [ [ 124.8413617, 1.3255337, 0.0 ], [ 124.8413853, 1.3255503, 0.0 ] ] } },
{ "type": "Feature", "properties": { "Name": -1, "FID": 42, "Field_1": -1, "LEFT_FID": -1, "RIGHT_FID": 3 }, "geometry": { "type": "LineString", "coordinates": [ [ 124.8413853, 1.3255503, 0.0 ], [ 124.8413644, 1.3255354, 0.0 ], [ 124.8413617, 1.3255337, 0.0 ] ] } },
{ "type": "Feature", "properties": { "Name": 0, "FID": 43, "Field_1": 0, "LEFT_FID": 0, "RIGHT_FID": 0 }, "geometry": { "type": "LineString", "coordinates": [ [ 124.8414256, 1.325579, 0.0 ], [ 124.8413853, 1.3255503, 0.0 ] ] } },
{ "type": "Feature", "properties": { "Name": 0, "FID": 44, "Field_1": 0, "LEFT_FID": 0, "RIGHT_FID": 3 }, "geometry": { "type": "LineString", "coordinates": [ [ 124.8414256, 1.325579, 0.0 ], [ 124.8413853, 1.3255503, 0.0 ] ] } },
{ "type": "Feature", "properties": { "Name": 3, "FID": 45, "Field_1": 3, "LEFT_FID": 3, "RIGHT_FID": 0 }, "geometry": { "type": "LineString", "coordinates": [ [ 124.8413853, 1.3255503, 0.0 ], [ 124.8414213, 1.3255753, 0.0 ], [ 124.8414256, 1.325579, 0.0 ] ] } },
{ "type": "Feature", "properties": { "Name": 3, "FID": 46, "Field_1": 3, "LEFT_FID": 3, "RIGHT_FID": 3 }, "geometry": { "type": "LineString", "coordinates": [ [ 124.8413853, 1.3255503, 0.0 ], [ 124.8414213, 1.3255753, 0.0 ], [ 124.8414256, 1.325579, 0.0 ] ] } },
{ "type": "Feature", "properties": { "Name": -1, "FID": 47, "Field_1": -1, "LEFT_FID": -1, "RIGHT_FID": 0 }, "geometry": { "type": "LineString", "coordinates": [ [ 124.8414256, 1.325579, 0.0 ], [ 124.8414502, 1.3255992, 0.0 ] ] } },
{ "type": "Feature", "properties": { "Name": -1, "FID": 48, "Field_1": -1, "LEFT_FID": -1, "RIGHT_FID": 3 }, "geometry": { "type": "LineString", "coordinates": [ [ 124.8414502, 1.3255992, 0.0 ], [ 124.8414293, 1.3255816, 0.0 ], [ 124.8414256, 1.325579, 0.0 ] ] } },
{ "type": "Feature", "properties": { "Name": -1, "FID": 49, "Field_1": -1, "LEFT_FID": -1, "RIGHT_FID": 1 }, "geometry": { "type": "LineString", "coordinates": [ [ 124.838588, 1.3256214, 0.0 ], [ 124.8385796, 1.3254232, 0.0 ], [ 124.8385683, 1.3251817, 0.0 ], [ 124.8385578, 1.3250181, 0.0 ], [ 124.8384756, 1.3238782, 0.0 ], [ 124.8384687, 1.3237828, 0.0 ], [ 124.838439, 1.3233704, 0.0 ], [ 124.839862, 1.3232661, 0.0 ], [ 124.8400206, 1.3232549, 0.0 ], [ 124.8400236, 1.3232547, 0.0 ] ] } },
{ "type": "Feature", "properties": { "Name": 1, "FID": 50, "Field_1": 1, "LEFT_FID": 1, "RIGHT_FID": 0 }, "geometry": { "type": "LineString", "coordinates": [ [ 124.838588, 1.3256214, 0.0 ], [ 124.8398989, 1.3255243, 0.0 ], [ 124.8399537, 1.3255203, 0.0 ] ] } },
{ "type": "Feature", "properties": { "Name": 0, "FID": 51, "Field_1": 0, "LEFT_FID": 0, "RIGHT_FID": 0 }, "geometry": { "type": "LineString", "coordinates": [ [ 124.8414856, 1.3256292, 0.0 ], [ 124.8414502, 1.3255992, 0.0 ] ] } },
{ "type": "Feature", "properties": { "Name": 0, "FID": 52, "Field_1": 0, "LEFT_FID": 0, "RIGHT_FID": 3 }, "geometry": { "type": "LineString", "coordinates": [ [ 124.8414856, 1.3256292, 0.0 ], [ 124.8414502, 1.3255992, 0.0 ] ] } },
{ "type": "Feature", "properties": { "Name": 3, "FID": 53, "Field_1": 3, "LEFT_FID": 3, "RIGHT_FID": 0 }, "geometry": { "type": "LineString", "coordinates": [ [ 124.8414502, 1.3255992, 0.0 ], [ 124.8414807, 1.3256245, 0.0 ], [ 124.8414856, 1.3256292, 0.0 ] ] } },
{ "type": "Feature", "properties": { "Name": 3, "FID": 54, "Field_1": 3, "LEFT_FID": 3, "RIGHT_FID": 3 }, "geometry": { "type": "LineString", "coordinates": [ [ 124.8414502, 1.3255992, 0.0 ], [ 124.8414807, 1.3256245, 0.0 ], [ 124.8414856, 1.3256292, 0.0 ] ] } },
{ "type": "Feature", "properties": { "Name": -1, "FID": 55, "Field_1": -1, "LEFT_FID": -1, "RIGHT_FID": 0 }, "geometry": { "type": "LineString", "coordinates": [ [ 124.8414856, 1.3256292, 0.0 ], [ 124.8415104, 1.3256533, 0.0 ] ] } },
{ "type": "Feature", "properties": { "Name": -1, "FID": 56, "Field_1": -1, "LEFT_FID": -1, "RIGHT_FID": 3 }, "geometry": { "type": "LineString", "coordinates": [ [ 124.8415104, 1.3256533, 0.0 ], [ 124.8414901, 1.3256331, 0.0 ], [ 124.8414856, 1.3256292, 0.0 ] ] } },
{ "type": "Feature", "properties": { "Name": 0, "FID": 57, "Field_1": 0, "LEFT_FID": 0, "RIGHT_FID": 0 }, "geometry": { "type": "LineString", "coordinates": [ [ 124.8415412, 1.3256841, 0.0 ], [ 124.8415104, 1.3256533, 0.0 ] ] } },
{ "type": "Feature", "properties": { "Name": 0, "FID": 58, "Field_1": 0, "LEFT_FID": 0, "RIGHT_FID": 3 }, "geometry": { "type": "LineString", "coordinates": [ [ 124.8415412, 1.3256841, 0.0 ], [ 124.8415104, 1.3256533, 0.0 ] ] } },
{ "type": "Feature", "properties": { "Name": 3, "FID": 59, "Field_1": 3, "LEFT_FID": 3, "RIGHT_FID": 0 }, "geometry": { "type": "LineString", "coordinates": [ [ 124.8415104, 1.3256533, 0.0 ], [ 124.8415361, 1.3256783, 0.0 ], [ 124.8415412, 1.3256841, 0.0 ] ] } },
{ "type": "Feature", "properties": { "Name": 3, "FID": 60, "Field_1": 3, "LEFT_FID": 3, "RIGHT_FID": 3 }, "geometry": { "type": "LineString", "coordinates": [ [ 124.8415104, 1.3256533, 0.0 ], [ 124.8415361, 1.3256783, 0.0 ], [ 124.8415412, 1.3256841, 0.0 ] ] } },
{ "type": "Feature", "properties": { "Name": -1, "FID": 61, "Field_1": -1, "LEFT_FID": -1, "RIGHT_FID": 0 }, "geometry": { "type": "LineString", "coordinates": [ [ 124.8415412, 1.3256841, 0.0 ], [ 124.8415656, 1.3257121, 0.0 ] ] } },
{ "type": "Feature", "properties": { "Name": -1, "FID": 62, "Field_1": -1, "LEFT_FID": -1, "RIGHT_FID": 3 }, "geometry": { "type": "LineString", "coordinates": [ [ 124.8415656, 1.3257121, 0.0 ], [ 124.8415465, 1.3256895, 0.0 ], [ 124.8415412, 1.3256841, 0.0 ] ] } },
{ "type": "Feature", "properties": { "Name": 0, "FID": 63, "Field_1": 0, "LEFT_FID": 0, "RIGHT_FID": 0 }, "geometry": { "type": "LineString", "coordinates": [ [ 124.841592, 1.3257433, 0.0 ], [ 124.8415656, 1.3257121, 0.0 ] ] } },
{ "type": "Feature", "properties": { "Name": 0, "FID": 64, "Field_1": 0, "LEFT_FID": 0, "RIGHT_FID": 3 }, "geometry": { "type": "LineString", "coordinates": [ [ 124.841592, 1.3257433, 0.0 ], [ 124.8415656, 1.3257121, 0.0 ] ] } },
{ "type": "Feature", "properties": { "Name": 3, "FID": 65, "Field_1": 3, "LEFT_FID": 3, "RIGHT_FID": 0 }, "geometry": { "type": "LineString", "coordinates": [ [ 124.8415656, 1.3257121, 0.0 ], [ 124.8415869, 1.3257364, 0.0 ], [ 124.841592, 1.3257433, 0.0 ] ] } },
{ "type": "Feature", "properties": { "Name": 3, "FID": 66, "Field_1": 3, "LEFT_FID": 3, "RIGHT_FID": 3 }, "geometry": { "type": "LineString", "coordinates": [ [ 124.8415656, 1.3257121, 0.0 ], [ 124.8415869, 1.3257364, 0.0 ], [ 124.841592, 1.3257433, 0.0 ] ] } },
{ "type": "Feature", "properties": { "Name": -1, "FID": 67, "Field_1": -1, "LEFT_FID": -1, "RIGHT_FID": 0 }, "geometry": { "type": "LineString", "coordinates": [ [ 124.841592, 1.3257433, 0.0 ], [ 124.8416157, 1.3257753, 0.0 ] ] } },
{ "type": "Feature", "properties": { "Name": -1, "FID": 68, "Field_1": -1, "LEFT_FID": -1, "RIGHT_FID": 3 }, "geometry": { "type": "LineString", "coordinates": [ [ 124.8416157, 1.3257753, 0.0 ], [ 124.841598, 1.3257504, 0.0 ], [ 124.841592, 1.3257433, 0.0 ] ] } },
{ "type": "Feature", "properties": { "Name": 0, "FID": 69, "Field_1": 0, "LEFT_FID": 0, "RIGHT_FID": 0 }, "geometry": { "type": "LineString", "coordinates": [ [ 124.8416378, 1.3258062, 0.0 ], [ 124.8416157, 1.3257753, 0.0 ] ] } },
{ "type": "Feature", "properties": { "Name": 0, "FID": 70, "Field_1": 0, "LEFT_FID": 0, "RIGHT_FID": 3 }, "geometry": { "type": "LineString", "coordinates": [ [ 124.8416378, 1.3258062, 0.0 ], [ 124.8416157, 1.3257753, 0.0 ] ] } },
{ "type": "Feature", "properties": { "Name": 3, "FID": 71, "Field_1": 3, "LEFT_FID": 3, "RIGHT_FID": 0 }, "geometry": { "type": "LineString", "coordinates": [ [ 124.8416157, 1.3257753, 0.0 ], [ 124.8416329, 1.3257985, 0.0 ], [ 124.8416378, 1.3258062, 0.0 ] ] } },
{ "type": "Feature", "properties": { "Name": 3, "FID": 72, "Field_1": 3, "LEFT_FID": 3, "RIGHT_FID": 3 }, "geometry": { "type": "LineString", "coordinates": [ [ 124.8416157, 1.3257753, 0.0 ], [ 124.8416329, 1.3257985, 0.0 ], [ 124.8416378, 1.3258062, 0.0 ] ] } },
{ "type": "Feature", "properties": { "Name": -1, "FID": 73, "Field_1": -1, "LEFT_FID": -1, "RIGHT_FID": 0 }, "geometry": { "type": "LineString", "coordinates": [ [ 124.8416378, 1.3258062, 0.0 ], [ 124.8416603, 1.3258423, 0.0 ] ] } },
{ "type": "Feature", "properties": { "Name": -1, "FID": 74, "Field_1": -1, "LEFT_FID": -1, "RIGHT_FID": 3 }, "geometry": { "type": "LineString", "coordinates": [ [ 124.8416603, 1.3258423, 0.0 ], [ 124.8416443, 1.3258154, 0.0 ], [ 124.8416378, 1.3258062, 0.0 ] ] } },
{ "type": "Feature", "properties": { "Name": 0, "FID": 75, "Field_1": 0, "LEFT_FID": 0, "RIGHT_FID": 0 }, "geometry": { "type": "LineString", "coordinates": [ [ 124.8416783, 1.3258726, 0.0 ], [ 124.8416603, 1.3258423, 0.0 ] ] } },
{ "type": "Feature", "properties": { "Name": 0, "FID": 76, "Field_1": 0, "LEFT_FID": 0, "RIGHT_FID": 3 }, "geometry": { "type": "LineString", "coordinates": [ [ 124.8416783, 1.3258726, 0.0 ], [ 124.8416603, 1.3258423, 0.0 ] ] } },
{ "type": "Feature", "properties": { "Name": 3, "FID": 77, "Field_1": 3, "LEFT_FID": 3, "RIGHT_FID": 0 }, "geometry": { "type": "LineString", "coordinates": [ [ 124.8416603, 1.3258423, 0.0 ], [ 124.8416739, 1.325864, 0.0 ], [ 124.8416783, 1.3258726, 0.0 ] ] } },
{ "type": "Feature", "properties": { "Name": 3, "FID": 78, "Field_1": 3, "LEFT_FID": 3, "RIGHT_FID": 3 }, "geometry": { "type": "LineString", "coordinates": [ [ 124.8416603, 1.3258423, 0.0 ], [ 124.8416739, 1.325864, 0.0 ], [ 124.8416783, 1.3258726, 0.0 ] ] } },
{ "type": "Feature", "properties": { "Name": -1, "FID": 79, "Field_1": -1, "LEFT_FID": -1, "RIGHT_FID": 3 }, "geometry": { "type": "LineString", "coordinates": [ [ 124.8416851, 1.3258841, 0.0 ], [ 124.8416783, 1.3258726, 0.0 ] ] } },
{ "type": "Feature", "properties": { "Name": 5, "FID": 80, "Field_1": 5, "LEFT_FID": 5, "RIGHT_FID": 3 }, "geometry": { "type": "LineString", "coordinates": [ [ 124.842277, 1.3231044, 0.0 ], [ 124.8422789, 1.3233575, 0.0 ], [ 124.8418986, 1.3233733, 0.0 ], [ 124.8419104, 1.3242745, 0.0 ], [ 124.8419857, 1.3242722, 0.0 ], [ 124.8419806, 1.3243343, 0.0 ], [ 124.8419113, 1.3243363, 0.0 ], [ 124.841913, 1.3245262, 0.0 ], [ 124.8419122, 1.3245563, 0.0 ], [ 124.8419169, 1.324649, 0.0 ], [ 124.8420477, 1.324649, 0.0 ], [ 124.8420606, 1.3246331, 0.0 ], [ 124.8421814, 1.3246529, 0.0 ], [ 124.8420329, 1.3254232, 0.0 ], [ 124.8419893, 1.3256014, 0.0 ], [ 124.8418605, 1.3258073, 0.0 ], [ 124.841809, 1.3258311, 0.0 ], [ 124.8416851, 1.3258841, 0.0 ] ] } },
{ "type": "Feature", "properties": { "Name": -1, "FID": 81, "Field_1": -1, "LEFT_FID": -1, "RIGHT_FID": 0 }, "geometry": { "type": "LineString", "coordinates": [ [ 124.8416783, 1.3258726, 0.0 ], [ 124.8417094, 1.3259327, 0.0 ] ] } },
{ "type": "Feature", "properties": { "Name": -1, "FID": 82, "Field_1": -1, "LEFT_FID": -1, "RIGHT_FID": 5 }, "geometry": { "type": "LineString", "coordinates": [ [ 124.8417094, 1.3259327, 0.0 ], [ 124.8416851, 1.3258841, 0.0 ] ] } },
{ "type": "Feature", "properties": { "Name": 5, "FID": 83, "Field_1": 5, "LEFT_FID": 5, "RIGHT_FID": 0 }, "geometry": { "type": "LineString", "coordinates": [ [ 124.8417094, 1.3259327, 0.0 ], [ 124.8417393, 1.3260041, 0.0 ], [ 124.8417634, 1.3260776, 0.0 ], [ 124.8417943, 1.3261893, 0.0 ], [ 124.8416446, 1.3263224, 0.0 ], [ 124.8415042, 1.3263942, 0.0 ] ] } },
{ "type": "Feature", "properties": { "Name": -1, "FID": 84, "Field_1": -1, "LEFT_FID": -1, "RIGHT_FID": 0 }, "geometry": { "type": "LineString", "coordinates": [ [ 124.8415042, 1.3263942, 0.0 ], [ 124.8414693, 1.3264033, 0.0 ], [ 124.8414043, 1.3264204, 0.0 ], [ 124.8412853, 1.3264287, 0.0 ], [ 124.8409903, 1.3264323, 0.0 ], [ 124.8409962, 1.3262026, 0.0 ], [ 124.8408297, 1.326205, 0.0 ], [ 124.8407547, 1.326205, 0.0 ], [ 124.840734, 1.3262069, 0.0 ], [ 124.8405566, 1.3262133, 0.0 ], [ 124.8402162, 1.326237, 0.0 ], [ 124.8402219, 1.3263194, 0.0 ], [ 124.8399506, 1.3263226, 0.0 ], [ 124.8396037, 1.3263426, 0.0 ], [ 124.8394595, 1.3263483, 0.0 ], [ 124.8394367, 1.3263712, 0.0 ], [ 124.8394245, 1.3264141, 0.0 ], [ 124.8393832, 1.3264165, 0.0 ], [ 124.8393474, 1.3264186, 0.0 ], [ 124.838649, 1.3264592, 0.0 ], [ 124.8385966, 1.3258249, 0.0 ], [ 124.8385883, 1.3256285, 0.0 ], [ 124.838588, 1.3256214, 0.0 ] ] } },
{ "type": "Feature", "properties": { "Name": 5, "FID": 85, "Field_1": 5, "LEFT_FID": 5, "RIGHT_FID": 4 }, "geometry": { "type": "LineString", "coordinates": [ [ 124.8689742, 1.3313316, 0.0 ], [ 124.861506, 1.3265175, 0.0 ], [ 124.8615006, 1.326514, 0.0 ], [ 124.8580517, 1.3242908, 0.0 ], [ 124.8563999, 1.3233926, 0.0 ], [ 124.8557316, 1.3231724, 0.0 ], [ 124.8552384, 1.3230892, 0.0 ], [ 124.8551889, 1.3234754, 0.0 ], [ 124.8550998, 1.3238516, 0.0 ], [ 124.8549651, 1.3240813, 0.0 ], [ 124.8548343, 1.3242377, 0.0 ], [ 124.8547571, 1.3245387, 0.0 ], [ 124.8546402, 1.3249506, 0.0 ], [ 124.8546026, 1.3251466, 0.0 ], [ 124.8542025, 1.3256099, 0.0 ], [ 124.8534776, 1.325303, 0.0 ], [ 124.8529408, 1.3252872, 0.0 ], [ 124.8524021, 1.3251268, 0.0 ], [ 124.851901, 1.3249169, 0.0 ], [ 124.8516732, 1.3248793, 0.0 ], [ 124.8501243, 1.3245466, 0.0 ], [ 124.8479139, 1.3241526, 0.0 ], [ 124.8469157, 1.3240793, 0.0 ], [ 124.8466724, 1.3239936, 0.0 ], [ 124.8464638, 1.32392, 0.0 ] ] } },
{ "type": "Feature", "properties": { "Name": -1, "FID": 86, "Field_1": -1, "LEFT_FID": -1, "RIGHT_FID": 4 }, "geometry": { "type": "LineString", "coordinates": [ [ 124.8425926, 1.32309, 0.0 ], [ 124.8426621, 1.3229225, 0.0 ], [ 124.8426859, 1.3229273, 0.0 ], [ 124.8427725, 1.3229377, 0.0 ], [ 124.8429239, 1.3229672, 0.0 ], [ 124.8430914, 1.3229796, 0.0 ], [ 124.8432332, 1.3229939, 0.0 ], [ 124.8434435, 1.323011, 0.0 ], [ 124.8436444, 1.3230396, 0.0 ], [ 124.8437671, 1.3230538, 0.0 ], [ 124.8438357, 1.3230738, 0.0 ], [ 124.8439204, 1.3230948, 0.0 ], [ 124.8439784, 1.3231148, 0.0 ], [ 124.8441279, 1.3231861, 0.0 ], [ 124.8442097, 1.3232166, 0.0 ], [ 124.8444172, 1.3233089, 0.0 ], [ 124.8446304, 1.3234041, 0.0 ], [ 124.8448131, 1.323486, 0.0 ], [ 124.8449359, 1.3235393, 0.0 ], [ 124.8449959, 1.3235659, 0.0 ], [ 124.8450558, 1.3235926, 0.0 ], [ 124.8451368, 1.323604, 0.0 ], [ 124.8452376, 1.3235926, 0.0 ], [ 124.8453595, 1.3235611, 0.0 ], [ 124.8454695, 1.3235324, 0.0 ], [ 124.845768, 1.3234543, 0.0 ], [ 124.8460464, 1.3233306, 0.0 ], [ 124.8462582, 1.3232259, 0.0 ], [ 124.8465437, 1.3230974, 0.0 ], [ 124.8468055, 1.3230593, 0.0 ], [ 124.8472028, 1.3229998, 0.0 ], [ 124.8478306, 1.3224418, 0.0 ], [ 124.8479826, 1.3226508, 0.0 ], [ 124.8481368, 1.3228659, 0.0 ], [ 124.8482091, 1.3229687, 0.0 ], [ 124.8482212, 1.3229751, 0.0 ], [ 124.8489122, 1.3229737, 0.0 ], [ 124.8490975, 1.3229064, 0.0 ], [ 124.8491031, 1.3229043, 0.0 ], [ 124.8492338, 1.3228569, 0.0 ], [ 124.8494324, 1.3227831, 0.0 ], [ 124.8496541, 1.3227008, 0.0 ], [ 124.8497832, 1.3226528, 0.0 ], [ 124.8498657, 1.3226222, 0.0 ], [ 124.8499402, 1.3225945, 0.0 ], [ 124.8500031, 1.3225712, 0.0 ], [ 124.8502083, 1.3224994, 0.0 ], [ 124.8502089, 1.3224992, 0.0 ], [ 124.8503802, 1.3224379, 0.0 ], [ 124.8506057, 1.3223865, 0.0 ], [ 124.8508185, 1.3223479, 0.0 ], [ 124.8510112, 1.3223294, 0.0 ], [ 124.8512082, 1.3222965, 0.0 ], [ 124.8513581, 1.3222822, 0.0 ], [ 124.8514723, 1.322268, 0.0 ], [ 124.851558, 1.3222537, 0.0 ], [ 124.851638, 1.322208, 0.0 ], [ 124.8517122, 1.3221637, 0.0 ], [ 124.8519221, 1.322031, 0.0 ], [ 124.8520131, 1.3219724, 0.0 ], [ 124.8521166, 1.3220378, 0.0 ], [ 124.852276, 1.3221354, 0.0 ], [ 124.8523545, 1.322183, 0.0 ], [ 124.8524854, 1.3222579, 0.0 ], [ 124.8525306, 1.3222984, 0.0 ], [ 124.8525937, 1.3223543, 0.0 ], [ 124.8526603, 1.3224066, 0.0 ], [ 124.8527198, 1.3224566, 0.0 ], [ 124.8527769, 1.3224959, 0.0 ], [ 124.8528804, 1.3225423, 0.0 ], [ 124.8530755, 1.3225815, 0.0 ], [ 124.8532635, 1.3226267, 0.0 ], [ 124.8534991, 1.3226731, 0.0 ], [ 124.8538619, 1.3227493, 0.0 ], [ 124.853988, 1.3227826, 0.0 ], [ 124.8542308, 1.322848, 0.0 ], [ 124.8544758, 1.3229158, 0.0 ], [ 124.8545912, 1.3218415, 0.0 ], [ 124.8547019, 1.3218272, 0.0 ], [ 124.8548625, 1.321788, 0.0 ], [ 124.855737, 1.321249, 0.0 ], [ 124.8560699, 1.3211785, 0.0 ], [ 124.8560826, 1.3211758, 0.0 ], [ 124.8565293, 1.3210813, 0.0 ], [ 124.8582247, 1.3211634, 0.0 ], [ 124.8584067, 1.3211883, 0.0 ], [ 124.8586958, 1.321224, 0.0 ], [ 124.860177, 1.3215845, 0.0 ], [ 124.8609373, 1.3217915, 0.0 ], [ 124.8611693, 1.3218665, 0.0 ], [ 124.8623614, 1.3223091, 0.0 ], [ 124.8636418, 1.322968, 0.0 ], [ 124.863662, 1.3229784, 0.0 ], [ 124.8638247, 1.3230622, 0.0 ], [ 124.8647277, 1.323519, 0.0 ], [ 124.8653666, 1.3236903, 0.0 ], [ 124.866341, 1.3239081, 0.0 ], [ 124.8676438, 1.3241329, 0.0 ], [ 124.8684183, 1.3243221, 0.0 ], [ 124.8687606, 1.3244921, 0.0 ], [ 124.8689501, 1.3245862, 0.0 ], [ 124.8695033, 1.3248718, 0.0 ], [ 124.8704699, 1.3255152, 0.0 ], [ 124.8709857, 1.3258635, 0.0 ], [ 124.8715168, 1.3261871, 0.0 ], [ 124.8717986, 1.3263527, 0.0 ], [ 124.8719933, 1.3264598, 0.0 ], [ 124.8719116, 1.3266631, 0.0 ], [ 124.8718795, 1.3268916, 0.0 ], [ 124.8718624, 1.3270774, 0.0 ], [ 124.8718367, 1.3273556, 0.0 ], [ 124.8718224, 1.3276339, 0.0 ], [ 124.8717791, 1.3278253, 0.0 ], [ 124.8717546, 1.3279338, 0.0 ], [ 124.8717011, 1.3282086, 0.0 ], [ 124.8716047, 1.3285834, 0.0 ], [ 124.8714798, 1.3288046, 0.0 ], [ 124.8713941, 1.3289046, 0.0 ], [ 124.8709444, 1.3292151, 0.0 ], [ 124.8706374, 1.3295113, 0.0 ], [ 124.8703091, 1.3298361, 0.0 ], [ 124.8700342, 1.3301288, 0.0 ], [ 124.8697309, 1.3304001, 0.0 ], [ 124.8695131, 1.330682, 0.0 ], [ 124.8690339, 1.3312597, 0.0 ], [ 124.8689742, 1.3313316, 0.0 ] ] } },
{ "type": "Feature", "properties": { "Name": -1, "FID": 87, "Field_1": -1, "LEFT_FID": -1, "RIGHT_FID": 5 }, "geometry": { "type": "LineString", "coordinates": [ [ 124.8689742, 1.3313316, 0.0 ], [ 124.8684709, 1.3319384, 0.0 ], [ 124.8683888, 1.3326951, 0.0 ], [ 124.8683674, 1.3328021, 0.0 ], [ 124.8679106, 1.3330056, 0.0 ], [ 124.8678178, 1.3333625, 0.0 ], [ 124.8677143, 1.3338372, 0.0 ], [ 124.8675965, 1.3340228, 0.0 ], [ 124.8672681, 1.3346117, 0.0 ], [ 124.8670076, 1.3350971, 0.0 ], [ 124.8670647, 1.3360108, 0.0 ], [ 124.867418, 1.336739, 0.0 ], [ 124.867393, 1.337153, 0.0 ], [ 124.8673374, 1.3377926, 0.0 ], [ 124.8673228, 1.3378876, 0.0 ], [ 124.8671264, 1.3378722, 0.0 ], [ 124.866829, 1.3378436, 0.0 ], [ 124.8666696, 1.3378269, 0.0 ], [ 124.8665792, 1.337821, 0.0 ], [ 124.866528, 1.3377948, 0.0 ], [ 124.8664566, 1.3377092, 0.0 ], [ 124.8663924, 1.3376164, 0.0 ], [ 124.8663603, 1.3375807, 0.0 ], [ 124.8663151, 1.3375569, 0.0 ], [ 124.8661818, 1.3375604, 0.0 ], [ 124.866114, 1.3375545, 0.0 ], [ 124.8660652, 1.3375438, 0.0 ], [ 124.8660224, 1.3374914, 0.0 ], [ 124.8659379, 1.3372178, 0.0 ], [ 124.8658844, 1.3370667, 0.0 ], [ 124.8658701, 1.3369691, 0.0 ], [ 124.8658487, 1.3369037, 0.0 ], [ 124.8657975, 1.3368097, 0.0 ], [ 124.8657535, 1.3367467, 0.0 ], [ 124.8657178, 1.3366848, 0.0 ], [ 124.8656869, 1.3366134, 0.0 ], [ 124.8656762, 1.3365408, 0.0 ], [ 124.865669, 1.336435, 0.0 ], [ 124.8656762, 1.3363077, 0.0 ], [ 124.8657059, 1.3361137, 0.0 ], [ 124.8657047, 1.3360768, 0.0 ], [ 124.865669, 1.3360055, 0.0 ], [ 124.8654692, 1.3357247, 0.0 ], [ 124.8653859, 1.3355986, 0.0 ], [ 124.8653216, 1.3355474, 0.0 ], [ 124.8652717, 1.3355177, 0.0 ], [ 124.8651884, 1.3354951, 0.0 ], [ 124.8650468, 1.3354844, 0.0 ], [ 124.8646649, 1.3354653, 0.0 ], [ 124.8643139, 1.3354296, 0.0 ], [ 124.8641402, 1.3354106, 0.0 ], [ 124.8639951, 1.3353987, 0.0 ], [ 124.8638523, 1.3353999, 0.0 ], [ 124.8636453, 1.3354237, 0.0 ], [ 124.8635037, 1.3354368, 0.0 ], [ 124.8633407, 1.3354213, 0.0 ], [ 124.8630837, 1.335363, 0.0 ], [ 124.8629279, 1.3353202, 0.0 ], [ 124.8627982, 1.3352678, 0.0 ], [ 124.8626923, 1.3352476, 0.0 ], [ 124.8624877, 1.3352512, 0.0 ], [ 124.8623699, 1.3352464, 0.0 ], [ 124.8622057, 1.3352309, 0.0 ], [ 124.8620641, 1.3351905, 0.0 ], [ 124.8619119, 1.3351203, 0.0 ], [ 124.8618155, 1.3350822, 0.0 ], [ 124.8616573, 1.3350608, 0.0 ], [ 124.861524, 1.3350656, 0.0 ], [ 124.8612563, 1.3351679, 0.0 ], [ 124.8611603, 1.3351959, 0.0 ], [ 124.8610925, 1.3352078, 0.0 ], [ 124.861014, 1.3352101, 0.0 ], [ 124.8609129, 1.3351816, 0.0 ], [ 124.8606761, 1.3350614, 0.0 ], [ 124.8604584, 1.3349555, 0.0 ], [ 124.8602514, 1.334858, 0.0 ], [ 124.8599932, 1.3347378, 0.0 ], [ 124.8597957, 1.3346462, 0.0 ], [ 124.859603, 1.3345594, 0.0 ], [ 124.8594638, 1.3344975, 0.0 ], [ 124.8593198, 1.3344582, 0.0 ], [ 124.8591592, 1.3344154, 0.0 ], [ 124.8589034, 1.3343071, 0.0 ], [ 124.858512, 1.3341549, 0.0 ], [ 124.8581456, 1.3340109, 0.0 ], [ 124.8578803, 1.3339122, 0.0 ], [ 124.8576197, 1.3338134, 0.0 ], [ 124.8574639, 1.3337622, 0.0 ], [ 124.8572104, 1.3336825, 0.0 ], [ 124.8570141, 1.3336219, 0.0 ], [ 124.8568238, 1.3335588, 0.0 ], [ 124.8566965, 1.3335172, 0.0 ], [ 124.8565085, 1.3334517, 0.0 ], [ 124.85633, 1.333397, 0.0 ], [ 124.8562111, 1.3333673, 0.0 ], [ 124.8561171, 1.3333494, 0.0 ], [ 124.8560159, 1.3333339, 0.0 ], [ 124.855847, 1.3333161, 0.0 ], [ 124.8557078, 1.3333173, 0.0 ], [ 124.8556055, 1.3333173, 0.0 ], [ 124.8554996, 1.3333292, 0.0 ], [ 124.8553699, 1.333353, 0.0 ], [ 124.8549726, 1.3334517, 0.0 ], [ 124.8548024, 1.3334969, 0.0 ], [ 124.8547096, 1.3335267, 0.0 ], [ 124.8546156, 1.3335636, 0.0 ], [ 124.8545109, 1.3336135, 0.0 ], [ 124.8544205, 1.3336468, 0.0 ], [ 124.854317, 1.3336671, 0.0 ], [ 124.8538364, 1.3337016, 0.0 ], [ 124.8536734, 1.333723, 0.0 ], [ 124.8536151, 1.3337313, 0.0 ], [ 124.853527, 1.3337254, 0.0 ], [ 124.8533997, 1.3337147, 0.0 ], [ 124.8532701, 1.3336932, 0.0 ], [ 124.8531428, 1.3336706, 0.0 ], [ 124.8530523, 1.3336623, 0.0 ], [ 124.8529524, 1.333673, 0.0 ], [ 124.8528965, 1.3336778, 0.0 ], [ 124.8528382, 1.3336742, 0.0 ], [ 124.8527501, 1.3336326, 0.0 ], [ 124.8526811, 1.3335874, 0.0 ], [ 124.8526359, 1.3335529, 0.0 ], [ 124.8525586, 1.333472, 0.0 ], [ 124.8524194, 1.3333185, 0.0 ], [ 124.8522564, 1.3331103, 0.0 ], [ 124.8521886, 1.333046, 0.0 ], [ 124.8521267, 1.3329984, 0.0 ], [ 124.8518983, 1.3328676, 0.0 ], [ 124.8518031, 1.3328176, 0.0 ], [ 124.8517531, 1.3327783, 0.0 ], [ 124.8516651, 1.3326558, 0.0 ], [ 124.8515366, 1.3324226, 0.0 ], [ 124.8514985, 1.3323679, 0.0 ], [ 124.8514581, 1.332331, 0.0 ], [ 124.8513665, 1.3322894, 0.0 ], [ 124.851238, 1.332243, 0.0 ], [ 124.8511309, 1.3321918, 0.0 ], [ 124.85105, 1.3321406, 0.0 ], [ 124.8509548, 1.3321061, 0.0 ], [ 124.8508894, 1.3321073, 0.0 ], [ 124.8508406, 1.3321085, 0.0 ], [ 124.8507585, 1.3321216, 0.0 ], [ 124.8506443, 1.3321597, 0.0 ], [ 124.8506039, 1.3321716, 0.0 ], [ 124.8505337, 1.3321763, 0.0 ], [ 124.8504801, 1.3321728, 0.0 ], [ 124.8504004, 1.3321395, 0.0 ], [ 124.8503207, 1.3320847, 0.0 ], [ 124.8502493, 1.33203, 0.0 ], [ 124.8501768, 1.3319669, 0.0 ], [ 124.8500887, 1.3318503, 0.0 ], [ 124.8500197, 1.3317445, 0.0 ], [ 124.8499674, 1.33166, 0.0 ], [ 124.8499067, 1.3315612, 0.0 ], [ 124.849733, 1.3313304, 0.0 ], [ 124.84952, 1.3310616, 0.0 ], [ 124.8494284, 1.3309033, 0.0 ], [ 124.8493618, 1.3307867, 0.0 ], [ 124.8493225, 1.3307308, 0.0 ], [ 124.8493153, 1.3307239, 0.0 ], [ 124.8491809, 1.330594, 0.0 ], [ 124.8490774, 1.3304929, 0.0 ], [ 124.8489977, 1.3304298, 0.0 ], [ 124.8488585, 1.3303501, 0.0 ], [ 124.84878, 1.3303049, 0.0 ], [ 124.8487205, 1.3302585, 0.0 ], [ 124.8486206, 1.3301669, 0.0 ], [ 124.8484362, 1.3299872, 0.0 ], [ 124.8482208, 1.3297778, 0.0 ], [ 124.8481447, 1.3296957, 0.0 ], [ 124.8480852, 1.3296434, 0.0 ], [ 124.8480233, 1.3295982, 0.0 ], [ 124.8479412, 1.3295554, 0.0 ], [ 124.8478401, 1.3295066, 0.0 ], [ 124.8477699, 1.3294578, 0.0 ], [ 124.8477009, 1.3293698, 0.0 ], [ 124.8475463, 1.3291163, 0.0 ], [ 124.8475106, 1.3290652, 0.0 ], [ 124.8474654, 1.3290188, 0.0 ], [ 124.8473975, 1.3289557, 0.0 ], [ 124.8472691, 1.3288736, 0.0 ], [ 124.8470049, 1.3286809, 0.0 ], [ 124.8469026, 1.3286179, 0.0 ], [ 124.8467848, 1.328556, 0.0 ], [ 124.846673, 1.3284917, 0.0 ], [ 124.846582, 1.3284327, 0.0 ], [ 124.8465639, 1.3284209, 0.0 ], [ 124.8464953, 1.3283763, 0.0 ], [ 124.8460616, 1.3280393, 0.0 ], [ 124.8458522, 1.327849, 0.0 ], [ 124.8457866, 1.32779, 0.0 ], [ 124.8457104, 1.3278319, 0.0 ], [ 124.8455648, 1.3278899, 0.0 ], [ 124.8454439, 1.3279489, 0.0 ], [ 124.8452507, 1.3280631, 0.0 ], [ 124.8451032, 1.3281488, 0.0 ], [ 124.8449747, 1.3282287, 0.0 ], [ 124.8449052, 1.3282621, 0.0 ], [ 124.8447567, 1.3283163, 0.0 ], [ 124.8445702, 1.3283696, 0.0 ], [ 124.8444464, 1.3284001, 0.0 ], [ 124.8441485, 1.3284553, 0.0 ], [ 124.8439629, 1.3284829, 0.0 ], [ 124.8438497, 1.3285105, 0.0 ], [ 124.8437964, 1.3285171, 0.0 ], [ 124.8437431, 1.32852, 0.0 ], [ 124.8434547, 1.3284867, 0.0 ], [ 124.8432015, 1.3284581, 0.0 ], [ 124.8430188, 1.3284391, 0.0 ], [ 124.8428998, 1.3284267, 0.0 ], [ 124.8428427, 1.3284191, 0.0 ], [ 124.8427732, 1.3283915, 0.0 ], [ 124.8427263, 1.3283631, 0.0 ], [ 124.8425828, 1.3282763, 0.0 ], [ 124.8425029, 1.3282297, 0.0 ], [ 124.8424534, 1.3281964, 0.0 ], [ 124.8424315, 1.3281631, 0.0 ], [ 124.8423763, 1.3280774, 0.0 ], [ 124.8422354, 1.3277881, 0.0 ], [ 124.8421526, 1.3275996, 0.0 ], [ 124.8421269, 1.3275482, 0.0 ], [ 124.8421184, 1.3275111, 0.0 ], [ 124.8421127, 1.3273693, 0.0 ], [ 124.8421155, 1.3271018, 0.0 ], [ 124.8421203, 1.3269248, 0.0 ], [ 124.8421222, 1.3268506, 0.0 ], [ 124.8421241, 1.3267763, 0.0 ], [ 124.8421184, 1.3267268, 0.0 ], [ 124.8418129, 1.326762, 0.0 ], [ 124.8417272, 1.3267516, 0.0 ], [ 124.8416815, 1.3265905, 0.0 ], [ 124.8415685, 1.3265774, 0.0 ], [ 124.8415042, 1.3263942, 0.0 ] ] } }
]
}
